{"spkid": "20869521", "covariance": {"epoch": "2459434.5", "labels": ["e", "q", "tp", "node", "peri", "i"], "data": [["6.111996334174735E-16", "-8.332656523253299E-16", "8.74765419862934E-14", "-6.559950043142565E-14", "1.664151869864639E-13", "1.676793355620883E-14"], ["-8.332656523253299E-16", "1.142823846664402E-15", "-1.213857113668394E-13", "8.972723273225904E-14", "-2.297992051252971E-13", "-2.330855144891185E-14"], ["8.74765419862934E-14", "-1.213857113668394E-13", "2.575009032599455E-11", "-6.274346606835399E-12", "3.682675099567875E-11", "4.976750837459558E-12"], ["-6.559950043142565E-14", "8.972723273225904E-14", "-6.274346606835399E-12", "4.301838309844239E-11", "-5.301030842982472E-11", "1.694128710810821E-11"], ["1.664151869864639E-13", "-2.297992051252971E-13", "3.682675099567875E-11", "-5.301030842982472E-11", "9.958244694220916E-11", "-1.22751199035284E-11"], ["1.676793355620883E-14", "-2.330855144891185E-14", "4.976750837459558E-12", "1.694128710810821E-11", "-1.22751199035284E-11", "1.211829857817485E-11"]], "elements": [{"units": null, "title": "eccentricity", "value": ".3172369945264333", "name": "e", "sigma": 2.47224520106213e-08, "label": "e"}, {"label": "q", "sigma": 3.3805677728222e-08, "name": "q", "value": ".9438848285907979", "title": "perihelion distance", "units": "au"}, {"label": "tp", "sigma": 5.07445468262301e-06, "name": "tp", "units": "TDB", "value": "2459610.146783760881", "title": "time of perihelion passage"}, {"name": "om", "sigma": 6.55884007263803e-06, "title": "longitude of the ascending node", "value": "323.0886355092399", "units": "deg", "label": "node"}, {"name": "w", "sigma": 9.97910050767148e-06, "title": "argument of perihelion", "value": "160.5565416269438", "units": "deg", "label": "peri"}, {"label": "i", "title": "inclination", "value": "10.44925511555577", "units": "deg", "name": "i", "sigma": 3.48113466820444e-06}]}, "elements": [{"label": "e", "name": "e", "sigma": "2.4306E-8", "units": null, "title": "eccentricity", "value": ".3179497997731662"}, {"sigma": "3.9695E-9", "name": "a", "value": "1.383896383368382", "title": "semi-major axis", "units": "au", "label": "a"}, {"value": ".9438868053695965", "title": "perihelion distance", "units": "au", "name": "q", "sigma": "3.399E-8", "label": "q"}, {"label": "i", "name": "i", "sigma": "3.4835E-6", "title": "inclination; angle with respect to x-y ecliptic plane", "value": "10.43346967266483", "units": "deg"}, {"value": "323.0192459806144", "title": "longitude of the ascending node", "units": "deg", "name": "om", "sigma": "6.5882E-6", "label": "node"}, {"sigma": "9.9057E-6", "name": "w", "units": "deg", "title": "argument of perihelion", "value": "160.637512756055", "label": "peri"}, {"label": "M", "name": "ma", "sigma": "4.4545E-6", "units": "deg", "title": "mean anomaly", "value": "242.800996219232"}, {"label": "tp", "units": "TDB", "title": "time of perihelion passage", "value": "2461394.086562306993", "name": "tp", "sigma": "8.005E-6"}, {"title": "sidereal orbital period", "value": "594.6395462616869", "units": "d", "name": "per", "sigma": "2.5584E-6", "label": "period"}, {"value": ".6054087762295791", "title": "mean motion", "units": "deg/d", "sigma": "2.6048E-9", "name": "n", "label": "n"}, {"sigma": "5.2315E-9", "name": "ad", "units": "au", "title": "aphelion distance", "value": "1.823905961367168", "label": "Q"}], "epoch": "2461200.5"}